{
  "regions": [
    {
      "id": "ncr",
      "name": "National Capital Region",
      "cities": [
        {
          "id": "manila",
          "name": "Manila",
          "postalCode": "1000",
          "barangays": [
            {"name": "Binondo", "postalCode": "1006"},
            {"name": "Ermita", "postalCode": "1000"},
            {"name": "Intramuros", "postalCode": "1002"},
            {"name": "Malate", "postalCode": "1004"},
            {"name": "Paco", "postalCode": "1007"},
            {"name": "Pandacan", "postalCode": "1011"},
            {"name": "Port Area", "postalCode": "1018"},
            {"name": "Quiapo", "postalCode": "1001"},
            {"name": "Sampaloc", "postalCode": "1013"},
            {"name": "San Andres", "postalCode": "1017"},
            {"name": "San Miguel", "postalCode": "1005"},
            {"name": "San Nicolas", "postalCode": "1010"},
            {"name": "Santa Ana", "postalCode": "1014"},
            {"name": "Santa Cruz", "postalCode": "1003"},
            {"name": "Santa Mesa", "postalCode": "1016"},
            {"name": "Tondo", "postalCode": "1012"}
          ]
        },
        {
          "id": "quezon_city",
          "name": "Quezon City",
          "postalCode": "1100",
          "barangays": [
            {"name": "Alicia", "postalCode": "1109"},
            {"name": "Amihan", "postalCode": "1109"},
            {"name": "Apolonio Samson", "postalCode": "1106"},
            {"name": "Baesa", "postalCode": "1106"},
            {"name": "Bagbag", "postalCode": "1115"},
            {"name": "Bagong Silangan", "postalCode": "1119"},
            {"name": "Bahay Toro", "postalCode": "1106"},
            {"name": "Balingasa", "postalCode": "1106"},
            {"name": "Balong Bato", "postalCode": "1106"},
            {"name": "Batasan Hills", "postalCode": "1126"},
            {"name": "Bayanihan", "postalCode": "1109"},
            {"name": "Blue Ridge A", "postalCode": "1109"},
            {"name": "Blue Ridge B", "postalCode": "1109"},
            {"name": "Botocan", "postalCode": "1103"},
            {"name": "Bungad", "postalCode": "1106"},
            {"name": "Camp Aguinaldo", "postalCode": "1110"},
            {"name": "Capri", "postalCode": "1109"},
            {"name": "Central", "postalCode": "1109"},
            {"name": "Claro", "postalCode": "1106"},
            {"name": "Commonwealth", "postalCode": "1121"},
            {"name": "Culiat", "postalCode": "1109"},
            {"name": "Damar", "postalCode": "1109"},
            {"name": "Damayan", "postalCode": "1109"},
            {"name": "Damayang Lagi", "postalCode": "1109"},
            {"name": "Del Monte", "postalCode": "1105"},
            {"name": "Diliman", "postalCode": "1101"},
            {"name": "Dioquino Zobel", "postalCode": "1109"},
            {"name": "Don Manuel", "postalCode": "1109"},
            {"name": "Doña Aurora", "postalCode": "1109"},
            {"name": "Doña Imelda", "postalCode": "1109"},
            {"name": "Doña Josefa", "postalCode": "1109"},
            {"name": "Duyan-Duyan", "postalCode": "1109"},
            {"name": "East Kamias", "postalCode": "1102"},
            {"name": "Escopa I", "postalCode": "1109"},
            {"name": "Escopa II", "postalCode": "1109"},
            {"name": "Escopa III", "postalCode": "1109"},
            {"name": "Escopa IV", "postalCode": "1109"},
            {"name": "Fairview", "postalCode": "1118"},
            {"name": "Gulod", "postalCode": "1109"},
            {"name": "Holy Spirit", "postalCode": "1127"},
            {"name": "Horseshoe", "postalCode": "1109"},
            {"name": "Immaculate Conception", "postalCode": "1109"},
            {"name": "Kaligayahan", "postalCode": "1109"},
            {"name": "Kalusugan", "postalCode": "1103"},
            {"name": "Kamuning", "postalCode": "1103"},
            {"name": "Katipunan", "postalCode": "1105"},
            {"name": "Kaunlaran", "postalCode": "1109"},
            {"name": "Kristong Hari", "postalCode": "1109"},
            {"name": "Krus na Ligas", "postalCode": "1101"},
            {"name": "Laging Handa", "postalCode": "1103"},
            {"name": "Libis", "postalCode": "1105"},
            {"name": "Lourdes", "postalCode": "1109"},
            {"name": "Loyola Heights", "postalCode": "1108"},
            {"name": "Maharlika", "postalCode": "1109"},
            {"name": "Malaya", "postalCode": "1109"},
            {"name": "Mangga", "postalCode": "1109"},
            {"name": "Manresa", "postalCode": "1109"},
            {"name": "Mariana", "postalCode": "1109"},
            {"name": "Mariblo", "postalCode": "1109"},
            {"name": "Marilag", "postalCode": "1109"},
            {"name": "Masagana", "postalCode": "1109"},
            {"name": "Masambong", "postalCode": "1106"},
            {"name": "Matandang Balara", "postalCode": "1119"},
            {"name": "Milagrosa", "postalCode": "1109"},
            {"name": "Nayong Kanluran", "postalCode": "1109"},
            {"name": "New Era", "postalCode": "1109"},
            {"name": "Novaliches Proper", "postalCode": "1123"},
            {"name": "Obrero", "postalCode": "1109"},
            {"name": "Old Capitol Site", "postalCode": "1101"},
            {"name": "Paang Bundok", "postalCode": "1109"},
            {"name": "Pag-ibig sa Nayon", "postalCode": "1109"},
            {"name": "Paligsahan", "postalCode": "1103"},
            {"name": "Paltok", "postalCode": "1106"},
            {"name": "Pansol", "postalCode": "1108"},
            {"name": "Paraiso", "postalCode": "1109"},
            {"name": "Pasong Putik", "postalCode": "1109"},
            {"name": "Pasong Tamo", "postalCode": "1109"},
            {"name": "Payatas", "postalCode": "1119"},
            {"name": "Phil-Am", "postalCode": "1109"},
            {"name": "Pinagkaisahan", "postalCode": "1109"},
            {"name": "Pinyahan", "postalCode": "1101"},
            {"name": "Project 6", "postalCode": "1100"},
            {"name": "Quirino 2-A", "postalCode": "1109"},
            {"name": "Quirino 2-B", "postalCode": "1109"},
            {"name": "Quirino 2-C", "postalCode": "1109"},
            {"name": "Quirino 3-A", "postalCode": "1109"},
            {"name": "Ramon Magsaysay", "postalCode": "1109"},
            {"name": "Roxas", "postalCode": "1109"},
            {"name": "Sacred Heart", "postalCode": "1109"},
            {"name": "Saint Ignatius", "postalCode": "1109"},
            {"name": "Saint Peter", "postalCode": "1109"},
            {"name": "Salvador", "postalCode": "1109"},
            {"name": "San Agustin", "postalCode": "1109"},
            {"name": "San Antonio", "postalCode": "1109"},
            {"name": "San Bartolome", "postalCode": "1109"},
            {"name": "San Isidro", "postalCode": "1109"},
            {"name": "San Isidro Labrador", "postalCode": "1109"},
            {"name": "San Jose", "postalCode": "1109"},
            {"name": "San Martin de Porres", "postalCode": "1109"},
            {"name": "San Roque", "postalCode": "1109"},
            {"name": "San Vicente", "postalCode": "1109"},
            {"name": "Sangandaan", "postalCode": "1106"},
            {"name": "Santa Cruz", "postalCode": "1109"},
            {"name": "Santa Lucia", "postalCode": "1109"},
            {"name": "Santa Monica", "postalCode": "1109"},
            {"name": "Santa Teresita", "postalCode": "1109"},
            {"name": "Santo Cristo", "postalCode": "1109"},
            {"name": "Santo Domingo", "postalCode": "1109"},
            {"name": "Santo Niño", "postalCode": "1109"},
            {"name": "Santol", "postalCode": "1109"},
            {"name": "Sauyo", "postalCode": "1109"},
            {"name": "Sienna", "postalCode": "1109"},
            {"name": "Sikatuna Village", "postalCode": "1101"},
            {"name": "Silangan", "postalCode": "1109"},
            {"name": "Socorro", "postalCode": "1109"},
            {"name": "South Triangle", "postalCode": "1103"},
            {"name": "Tagumpay", "postalCode": "1109"},
            {"name": "Talayan", "postalCode": "1109"},
            {"name": "Talipapa", "postalCode": "1109"},
            {"name": "Tandang Sora", "postalCode": "1116"},
            {"name": "Tatalon", "postalCode": "1103"},
            {"name": "Teachers Village East", "postalCode": "1101"},
            {"name": "Teachers Village West", "postalCode": "1101"},
            {"name": "Ugong Norte", "postalCode": "1109"},
            {"name": "Unang Sigaw", "postalCode": "1109"},
            {"name": "Valencia", "postalCode": "1109"},
            {"name": "Vasra", "postalCode": "1109"},
            {"name": "Veterans Village", "postalCode": "1109"},
            {"name": "Villa Maria Clara", "postalCode": "1109"},
            {"name": "West Kamias", "postalCode": "1102"},
            {"name": "West Triangle", "postalCode": "1103"},
            {"name": "White Plains", "postalCode": "1109"}
          ]
        },
        {
          "id": "makati",
          "name": "Makati",
          "postalCode": "1200",
          "barangays": [
            {"name": "Ayala", "postalCode": "1226"},
            {"name": "Bel-Air", "postalCode": "1209"},
            {"name": "Cembo", "postalCode": "1214"},
            {"name": "Comembo", "postalCode": "1217"},
            {"name": "Dasmariñas", "postalCode": "1215"},
            {"name": "East Rembo", "postalCode": "1216"},
            {"name": "Forbes Park", "postalCode": "1219"},
            {"name": "Guadalupe Nuevo", "postalCode": "1212"},
            {"name": "Guadalupe Viejo", "postalCode": "1211"},
            {"name": "Kasilawan", "postalCode": "1209"},
            {"name": "La Paz", "postalCode": "1204"},
            {"name": "Magallanes", "postalCode": "1233"},
            {"name": "Olympia", "postalCode": "1207"},
            {"name": "Palanan", "postalCode": "1235"},
            {"name": "Pembo", "postalCode": "1218"},
            {"name": "Pinagkaisahan", "postalCode": "1213"},
            {"name": "Pio del Pilar", "postalCode": "1210"},
            {"name": "Pitogo", "postalCode": "1213"},
            {"name": "Poblacion", "postalCode": "1200"},
            {"name": "Post Proper Northside", "postalCode": "1230"},
            {"name": "Post Proper Southside", "postalCode": "1231"},
            {"name": "Rizal", "postalCode": "1205"},
            {"name": "San Antonio", "postalCode": "1203"},
            {"name": "San Isidro", "postalCode": "1206"},
            {"name": "San Lorenzo", "postalCode": "1223"},
            {"name": "Santa Cruz", "postalCode": "1202"},
            {"name": "Singkamas", "postalCode": "1206"},
            {"name": "South Cembo", "postalCode": "1214"},
            {"name": "Tejeros", "postalCode": "1208"},
            {"name": "Urdaneta", "postalCode": "1225"},
            {"name": "Valenzuela", "postalCode": "1201"},
            {"name": "West Rembo", "postalCode": "1215"}
          ]
        },
        {
          "id": "taguig",
          "name": "Taguig",
          "postalCode": "1630",
          "barangays": [
            {"name": "Bagumbayan", "postalCode": "1631"},
            {"name": "Bambang", "postalCode": "1636"},
            {"name": "Calzada", "postalCode": "1637"},
            {"name": "Central Bicutan", "postalCode": "1633"},
            {"name": "Central Signal Village", "postalCode": "1636"},
            {"name": "Fort Bonifacio", "postalCode": "1635"},
            {"name": "Hagonoy", "postalCode": "1630"},
            {"name": "Ibayo-Tipas", "postalCode": "1637"},
            {"name": "Ligid-Tipas", "postalCode": "1638"},
            {"name": "Lower Bicutan", "postalCode": "1632"},
            {"name": "Maharlika Village", "postalCode": "1630"},
            {"name": "Napindan", "postalCode": "1600"},
            {"name": "New Lower Bicutan", "postalCode": "1632"},
            {"name": "North Daang Hari", "postalCode": "1637"},
            {"name": "North Signal Village", "postalCode": "1636"},
            {"name": "Palingon", "postalCode": "1637"},
            {"name": "Pinagsama", "postalCode": "1630"},
            {"name": "San Miguel", "postalCode": "1630"},
            {"name": "Santa Ana", "postalCode": "1637"},
            {"name": "South Daang Hari", "postalCode": "1637"},
            {"name": "South Signal Village", "postalCode": "1636"},
            {"name": "Tanyag", "postalCode": "1630"},
            {"name": "Tuktukan", "postalCode": "1637"},
            {"name": "Upper Bicutan", "postalCode": "1633"},
            {"name": "Ususan", "postalCode": "1636"},
            {"name": "Wawa", "postalCode": "1637"},
            {"name": "Western Bicutan", "postalCode": "1630"}
          ]
        },
        {
          "id": "pateros",
          "name": "Pateros",
          "postalCode": "1620",
          "barangays": [
            {"name": "Aguho", "postalCode": "1620"},
            {"name": "Sta. Ana", "postalCode": "1621"},
            {"name": "San Roque", "postalCode": "1622"},
            {"name": "San Pedro", "postalCode": "1623"},
            {"name": "San Juan", "postalCode": "1624"},
            {"name": "Sto. Rosario-Kanluran", "postalCode": "1625"},
            {"name": "Sto. Rosario-Silangan", "postalCode": "1626"},
            {"name": "Magtanggol", "postalCode": "1627"},
            {"name": "Martires del 96", "postalCode": "1628"},
            {"name": "Tabacalera", "postalCode": "1629"}
          ]
        },
        {
          "id": "pasig",
          "name": "Pasig",
          "postalCode": "1600",
          "barangays": [
            {"name": "Bagong Ilog", "postalCode": "1600"},
            {"name": "Bagong Katipunan", "postalCode": "1600"},
            {"name": "Bambang", "postalCode": "1600"},
            {"name": "Buting", "postalCode": "1600"},
            {"name": "Caniogan", "postalCode": "1600"},
            {"name": "Dela Paz", "postalCode": "1600"},
            {"name": "Kalawaan", "postalCode": "1600"},
            {"name": "Kapasigan", "postalCode": "1600"},
            {"name": "Kapitolyo", "postalCode": "1603"},
            {"name": "Malinao", "postalCode": "1600"},
            {"name": "Manggahan", "postalCode": "1611"},
            {"name": "Maybunga", "postalCode": "1607"},
            {"name": "Oranbo", "postalCode": "1600"},
            {"name": "Palatiw", "postalCode": "1600"},
            {"name": "Pinagbuhatan", "postalCode": "1602"},
            {"name": "Pineda", "postalCode": "1604"},
            {"name": "Rosario", "postalCode": "1609"},
            {"name": "Sagad", "postalCode": "1600"},
            {"name": "San Antonio", "postalCode": "1605"},
            {"name": "San Joaquin", "postalCode": "1601"},
            {"name": "San Jose", "postalCode": "1600"},
            {"name": "San Miguel", "postalCode": "1600"},
            {"name": "San Nicolas", "postalCode": "1600"},
            {"name": "Santa Cruz", "postalCode": "1600"},
            {"name": "Santa Lucia", "postalCode": "1608"},
            {"name": "Santa Rosa", "postalCode": "1600"},
            {"name": "Santo Tomas", "postalCode": "1600"},
            {"name": "Santolan", "postalCode": "1610"},
            {"name": "Sumilang", "postalCode": "1600"},
            {"name": "Ugong", "postalCode": "1604"}
          ]
        },
        {
          "id": "mandaluyong",
          "name": "Mandaluyong",
          "postalCode": "1550",
          "barangays": [
            {"name": "Addition Hills", "postalCode": "1550"},
            {"name": "Bagong Silang", "postalCode": "1550"},
            {"name": "Barangka Drive", "postalCode": "1550"},
            {"name": "Barangka Ibaba", "postalCode": "1553"},
            {"name": "Barangka Ilaya", "postalCode": "1550"},
            {"name": "Barangka Itaas", "postalCode": "1550"},
            {"name": "Buayang Bato", "postalCode": "1550"},
            {"name": "Burol", "postalCode": "1550"},
            {"name": "Daang Bakal", "postalCode": "1550"},
            {"name": "Hagdang Bato Itaas", "postalCode": "1550"},
            {"name": "Hagdang Bato Libis", "postalCode": "1550"},
            {"name": "Harapin ang Bukas", "postalCode": "1550"},
            {"name": "Highway Hills", "postalCode": "1552"},
            {"name": "Hulo", "postalCode": "1550"},
            {"name": "Mabini–J. Rizal", "postalCode": "1550"},
            {"name": "Malamig", "postalCode": "1550"},
            {"name": "Mauway", "postalCode": "1550"},
            {"name": "Namayan", "postalCode": "1550"},
            {"name": "New Zañiga", "postalCode": "1550"},
            {"name": "Old Zañiga", "postalCode": "1550"},
            {"name": "Pag-Asa", "postalCode": "1550"},
            {"name": "Plainview", "postalCode": "1550"},
            {"name": "Pleasant Hills", "postalCode": "1550"},
            {"name": "Poblacion", "postalCode": "1550"},
            {"name": "San Jose", "postalCode": "1550"},
            {"name": "Vergara", "postalCode": "1550"},
            {"name": "Wack-Wack Greenhills", "postalCode": "1555"}
          ]
        },
        {
          "id": "san_juan",
          "name": "San Juan",
          "postalCode": "1500",
          "barangays": [
            {"name": "Addition Hills", "postalCode": "1500"},
            {"name": "Balong-Bato", "postalCode": "1509"},
            {"name": "Batis", "postalCode": "1500"},
            {"name": "Corazon de Jesus", "postalCode": "1500"},
            {"name": "Ermitaño", "postalCode": "1500"},
            {"name": "Greenhills", "postalCode": "1503"},
            {"name": "Isabelita", "postalCode": "1500"},
            {"name": "Kabayanan", "postalCode": "1500"},
            {"name": "Little Baguio", "postalCode": "1500"},
            {"name": "Maytunas", "postalCode": "1502"},
            {"name": "Onse (11)", "postalCode": "1500"},
            {"name": "Pasadena", "postalCode": "1500"},
            {"name": "Pedro Cruz", "postalCode": "1504"},
            {"name": "Progreso", "postalCode": "1500"},
            {"name": "Rivera", "postalCode": "1500"},
            {"name": "Salapan", "postalCode": "1500"},
            {"name": "San Perfecto", "postalCode": "1500"},
            {"name": "Santa Lucia", "postalCode": "1500"},
            {"name": "Tibagan", "postalCode": "1500"},
            {"name": "West Crame", "postalCode": "1502"}
          ]
        },
        {
          "id": "pasay",
          "name": "Pasay",
          "postalCode": "1300",
          "barangays": [
            {"name": "Barangay 1", "postalCode": "1300"},
            {"name": "Barangay 2", "postalCode": "1300"},
            {"name": "Barangay 3", "postalCode": "1300"},
            {"name": "Barangay 4", "postalCode": "1300"},
            {"name": "Barangay 5", "postalCode": "1300"},
            {"name": "Barangay 6", "postalCode": "1300"},
            {"name": "Barangay 7", "postalCode": "1300"},
            {"name": "Barangay 8", "postalCode": "1300"},
            {"name": "Barangay 9", "postalCode": "1300"},
            {"name": "Barangay 10", "postalCode": "1300"},
            {"name": "Barangay 11", "postalCode": "1300"},
            {"name": "Barangay 12", "postalCode": "1300"},
            {"name": "Barangay 13", "postalCode": "1300"},
            {"name": "Barangay 14", "postalCode": "1300"},
            {"name": "Barangay 15", "postalCode": "1300"},
            {"name": "Barangay 16", "postalCode": "1300"},
            {"name": "Barangay 17", "postalCode": "1300"},
            {"name": "Barangay 18", "postalCode": "1300"},
            {"name": "Barangay 19", "postalCode": "1300"},
            {"name": "Barangay 20", "postalCode": "1300"},
            {"name": "Barangay 21", "postalCode": "1300"},
            {"name": "Barangay 22", "postalCode": "1300"},
            {"name": "Barangay 23", "postalCode": "1300"},
            {"name": "Barangay 24", "postalCode": "1300"},
            {"name": "Barangay 25", "postalCode": "1300"},
            {"name": "Barangay 26", "postalCode": "1300"},
            {"name": "Barangay 27", "postalCode": "1300"},
            {"name": "Barangay 28", "postalCode": "1300"},
            {"name": "Barangay 29", "postalCode": "1300"},
            {"name": "Barangay 30", "postalCode": "1300"},
            {"name": "Barangay 31", "postalCode": "1300"},
            {"name": "Barangay 32", "postalCode": "1300"},
            {"name": "Barangay 33", "postalCode": "1300"},
            {"name": "Barangay 34", "postalCode": "1300"},
            {"name": "Barangay 35", "postalCode": "1300"},
            {"name": "Barangay 36", "postalCode": "1300"},
            {"name": "Barangay 37", "postalCode": "1300"},
            {"name": "Barangay 38", "postalCode": "1300"},
            {"name": "Barangay 39", "postalCode": "1300"},
            {"name": "Barangay 40", "postalCode": "1300"},
            {"name": "Barangay 41", "postalCode": "1300"},
            {"name": "Barangay 42", "postalCode": "1300"},
            {"name": "Barangay 43", "postalCode": "1300"},
            {"name": "Barangay 44", "postalCode": "1300"},
            {"name": "Barangay 45", "postalCode": "1300"},
            {"name": "Barangay 46", "postalCode": "1300"},
            {"name": "Barangay 47", "postalCode": "1300"},
            {"name": "Barangay 48", "postalCode": "1300"},
            {"name": "Barangay 49", "postalCode": "1300"},
            {"name": "Barangay 50", "postalCode": "1300"},
            {"name": "Barangay 51", "postalCode": "1300"},
            {"name": "Barangay 52", "postalCode": "1300"},
            {"name": "Barangay 53", "postalCode": "1300"},
            {"name": "Barangay 54", "postalCode": "1300"},
            {"name": "Barangay 55", "postalCode": "1300"},
            {"name": "Barangay 56", "postalCode": "1300"},
            {"name": "Barangay 57", "postalCode": "1300"},
            {"name": "Barangay 58", "postalCode": "1300"},
            {"name": "Barangay 59", "postalCode": "1300"},
            {"name": "Barangay 60", "postalCode": "1300"},
            {"name": "Barangay 61", "postalCode": "1300"},
            {"name": "Barangay 62", "postalCode": "1300"},
            {"name": "Barangay 63", "postalCode": "1300"},
            {"name": "Barangay 64", "postalCode": "1300"},
            {"name": "Barangay 65", "postalCode": "1300"},
            {"name": "Barangay 66", "postalCode": "1300"},
            {"name": "Barangay 67", "postalCode": "1300"},
            {"name": "Barangay 68", "postalCode": "1300"},
            {"name": "Barangay 69", "postalCode": "1300"},
            {"name": "Barangay 70", "postalCode": "1300"},
            {"name": "Barangay 71", "postalCode": "1300"},
            {"name": "Barangay 72", "postalCode": "1300"},
            {"name": "Barangay 73", "postalCode": "1300"},
            {"name": "Barangay 74", "postalCode": "1300"},
            {"name": "Barangay 75", "postalCode": "1300"},
            {"name": "Barangay 76", "postalCode": "1300"},
            {"name": "Barangay 77", "postalCode": "1300"},
            {"name": "Barangay 78", "postalCode": "1300"},
            {"name": "Barangay 79", "postalCode": "1300"},
            {"name": "Barangay 80", "postalCode": "1300"},
            {"name": "Barangay 81", "postalCode": "1300"},
            {"name": "Barangay 82", "postalCode": "1300"},
            {"name": "Barangay 83", "postalCode": "1300"},
            {"name": "Barangay 84", "postalCode": "1300"},
            {"name": "Barangay 85", "postalCode": "1300"},
            {"name": "Barangay 86", "postalCode": "1300"},
            {"name": "Barangay 87", "postalCode": "1300"},
            {"name": "Barangay 88", "postalCode": "1300"},
            {"name": "Barangay 89", "postalCode": "1300"},
            {"name": "Barangay 90", "postalCode": "1300"},
            {"name": "Barangay 91", "postalCode": "1300"},
            {"name": "Barangay 92", "postalCode": "1300"},
            {"name": "Barangay 93", "postalCode": "1300"},
            {"name": "Barangay 94", "postalCode": "1300"},
            {"name": "Barangay 95", "postalCode": "1300"},
            {"name": "Barangay 96", "postalCode": "1300"},
            {"name": "Barangay 97", "postalCode": "1300"},
            {"name": "Barangay 98", "postalCode": "1300"},
            {"name": "Barangay 99", "postalCode": "1300"},
            {"name": "Barangay 100", "postalCode": "1300"},
            {"name": "Barangay 101", "postalCode": "1300"},
            {"name": "Barangay 102", "postalCode": "1300"},
            {"name": "Barangay 103", "postalCode": "1300"},
            {"name": "Barangay 104", "postalCode": "1300"},
            {"name": "Barangay 105", "postalCode": "1300"},
            {"name": "Barangay 106", "postalCode": "1300"},
            {"name": "Barangay 107", "postalCode": "1300"},
            {"name": "Barangay 108", "postalCode": "1300"},
            {"name": "Barangay 109", "postalCode": "1300"},
            {"name": "Barangay 110", "postalCode": "1300"},
            {"name": "Barangay 111", "postalCode": "1300"},
            {"name": "Barangay 112", "postalCode": "1300"},
            {"name": "Barangay 113", "postalCode": "1300"},
            {"name": "Barangay 114", "postalCode": "1300"},
            {"name": "Barangay 115", "postalCode": "1300"},
            {"name": "Barangay 116", "postalCode": "1300"},
            {"name": "Barangay 117", "postalCode": "1300"},
            {"name": "Barangay 118", "postalCode": "1300"},
            {"name": "Barangay 119", "postalCode": "1300"},
            {"name": "Barangay 120", "postalCode": "1300"},
            {"name": "Barangay 121", "postalCode": "1300"},
            {"name": "Barangay 122", "postalCode": "1300"},
            {"name": "Barangay 123", "postalCode": "1300"},
            {"name": "Barangay 124", "postalCode": "1300"},
            {"name": "Barangay 125", "postalCode": "1300"},
            {"name": "Barangay 126", "postalCode": "1300"},
            {"name": "Barangay 127", "postalCode": "1300"},
            {"name": "Barangay 128", "postalCode": "1300"},
            {"name": "Barangay 129", "postalCode": "1300"},
            {"name": "Barangay 130", "postalCode": "1300"},
            {"name": "Barangay 131", "postalCode": "1300"},
            {"name": "Barangay 132", "postalCode": "1300"},
            {"name": "Barangay 133", "postalCode": "1300"},
            {"name": "Barangay 134", "postalCode": "1300"},
            {"name": "Barangay 135", "postalCode": "1300"},
            {"name": "Barangay 136", "postalCode": "1300"},
            {"name": "Barangay 137", "postalCode": "1300"},
            {"name": "Barangay 138", "postalCode": "1300"},
            {"name": "Barangay 139", "postalCode": "1300"},
            {"name": "Barangay 140", "postalCode": "1300"},
            {"name": "Barangay 141", "postalCode": "1300"},
            {"name": "Barangay 142", "postalCode": "1300"},
            {"name": "Barangay 143", "postalCode": "1300"},
            {"name": "Barangay 144", "postalCode": "1300"},
            {"name": "Barangay 145", "postalCode": "1300"},
            {"name": "Barangay 146", "postalCode": "1300"},
            {"name": "Barangay 147", "postalCode": "1300"},
            {"name": "Barangay 148", "postalCode": "1300"},
            {"name": "Barangay 149", "postalCode": "1300"},
            {"name": "Barangay 150", "postalCode": "1300"},
            {"name": "Barangay 151", "postalCode": "1300"},
            {"name": "Barangay 152", "postalCode": "1300"},
            {"name": "Barangay 153", "postalCode": "1300"},
            {"name": "Barangay 154", "postalCode": "1300"},
            {"name": "Barangay 155", "postalCode": "1300"},
            {"name": "Barangay 156", "postalCode": "1300"},
            {"name": "Barangay 157", "postalCode": "1300"},
            {"name": "Barangay 158", "postalCode": "1300"},
            {"name": "Barangay 159", "postalCode": "1300"},
            {"name": "Barangay 160", "postalCode": "1300"},
            {"name": "Barangay 161", "postalCode": "1300"},
            {"name": "Barangay 162", "postalCode": "1300"},
            {"name": "Barangay 163", "postalCode": "1300"},
            {"name": "Barangay 164", "postalCode": "1300"},
            {"name": "Barangay 165", "postalCode": "1300"},
            {"name": "Barangay 166", "postalCode": "1300"},
            {"name": "Barangay 167", "postalCode": "1300"},
            {"name": "Barangay 168", "postalCode": "1300"},
            {"name": "Barangay 169", "postalCode": "1300"},
            {"name": "Barangay 170", "postalCode": "1300"},
            {"name": "Barangay 171", "postalCode": "1300"},
            {"name": "Barangay 172", "postalCode": "1300"},
            {"name": "Barangay 173", "postalCode": "1300"},
            {"name": "Barangay 174", "postalCode": "1300"},
            {"name": "Barangay 175", "postalCode": "1300"},
            {"name": "Barangay 176", "postalCode": "1300"},
            {"name": "Barangay 177", "postalCode": "1300"},
            {"name": "Barangay 178", "postalCode": "1300"},
            {"name": "Barangay 179", "postalCode": "1300"},
            {"name": "Barangay 180", "postalCode": "1300"},
            {"name": "Barangay 181", "postalCode": "1300"},
            {"name": "Barangay 182", "postalCode": "1300"},
            {"name": "Barangay 183", "postalCode": "1300"},
            {"name": "Barangay 184", "postalCode": "1300"},
            {"name": "Barangay 185", "postalCode": "1300"},
            {"name": "Barangay 186", "postalCode": "1300"},
            {"name": "Barangay 187", "postalCode": "1300"},
            {"name": "Barangay 188", "postalCode": "1300"},
            {"name": "Barangay 189", "postalCode": "1300"},
            {"name": "Barangay 190", "postalCode": "1300"},
            {"name": "Barangay 191", "postalCode": "1300"},
            {"name": "Barangay 192", "postalCode": "1300"},
            {"name": "Barangay 193", "postalCode": "1300"},
            {"name": "Barangay 194", "postalCode": "1300"},
            {"name": "Barangay 195", "postalCode": "1300"},
            {"name": "Barangay 196", "postalCode": "1300"},
            {"name": "Barangay 197", "postalCode": "1300"},
            {"name": "Barangay 198", "postalCode": "1300"},
            {"name": "Barangay 199", "postalCode": "1300"},
            {"name": "Barangay 200", "postalCode": "1300"},
            {"name": "Barangay 201", "postalCode": "1300"}
          ]
        },
        {
          "id": "paranaque",
          "name": "Parañaque",
          "postalCode": "1700",
          "barangays": [
            {"name": "Baclaran", "postalCode": "1702"},
            {"name": "BF Homes", "postalCode": "1720"},
            {"name": "Don Bosco", "postalCode": "1711"},
            {"name": "Don Galo", "postalCode": "1700"},
            {"name": "La Huerta", "postalCode": "1703"},
            {"name": "Marcelo Green", "postalCode": "1714"},
            {"name": "Merville", "postalCode": "1709"},
            {"name": "Moonwalk", "postalCode": "1709"},
            {"name": "San Antonio", "postalCode": "1715"},
            {"name": "San Dionisio", "postalCode": "1700"},
            {"name": "San Isidro", "postalCode": "1700"},
            {"name": "San Martin de Porres", "postalCode": "1713"},
            {"name": "Santo Niño", "postalCode": "1704"},
            {"name": "Sun Valley", "postalCode": "1712"},
            {"name": "Tambo", "postalCode": "1701"},
            {"name": "Vitalez", "postalCode": "1700"}
          ]
        },
        {
          "id": "las_pinas",
          "name": "Las Piñas",
          "postalCode": "1740",
          "barangays": [
            {"name": "Almanza Uno", "postalCode": "1750"},
            {"name": "Almanza Dos", "postalCode": "1750"},
            {"name": "B.F. International Village", "postalCode": "1740"},
            {"name": "C.A.A. – B.F. International Village", "postalCode": "1747"},
            {"name": "Daniel Fajardo", "postalCode": "1740"},
            {"name": "Elias Aldana", "postalCode": "1740"},
            {"name": "Ilaya", "postalCode": "1740"},
            {"name": "Manuyo Uno", "postalCode": "1740"},
            {"name": "Manuyo Dos", "postalCode": "1740"},
            {"name": "Pamplona Uno", "postalCode": "1740"},
            {"name": "Pamplona Dos", "postalCode": "1742"},
            {"name": "Pamplona Tres", "postalCode": "1742"},
            {"name": "Pilar Village", "postalCode": "1740"},
            {"name": "Pulang Lupa Uno", "postalCode": "1742"},
            {"name": "Pulang Lupa Dos", "postalCode": "1742"},
            {"name": "Talon Uno", "postalCode": "1747"},
            {"name": "Talon Dos", "postalCode": "1747"},
            {"name": "Talon Tres", "postalCode": "1747"},
            {"name": "Talon Kuatro", "postalCode": "1747"},
            {"name": "Talon Singko", "postalCode": "1747"},
            {"name": "Zapote", "postalCode": "1742"}
          ]
        },
        {
          "id": "muntinlupa",
          "name": "Muntinlupa",
          "postalCode": "1770",
          "barangays": [
            {"name": "Alabang", "postalCode": "1781"},
            {"name": "Ayala Alabang", "postalCode": "1780"},
            {"name": "Bayanan", "postalCode": "1772"},
            {"name": "Buli", "postalCode": "1772"},
            {"name": "Cupang", "postalCode": "1771"},
            {"name": "Poblacion", "postalCode": "1776"},
            {"name": "Putatan", "postalCode": "1772"},
            {"name": "Sucat", "postalCode": "1770"},
            {"name": "Tunasan", "postalCode": "1773"}
          ]
        },
        {
          "id": "malabon",
          "name": "Malabon",
          "postalCode": "1470",
          "barangays": [
            {"name": "Acacia", "postalCode": "1474"},
            {"name": "Araneta Subdivision", "postalCode": "1479"},
            {"name": "Baritan", "postalCode": "1470"},
            {"name": "Bayan-Bayanan", "postalCode": "1470"},
            {"name": "Catmon", "postalCode": "1470"},
            {"name": "Concepcion", "postalCode": "1470"},
            {"name": "Dampalit", "postalCode": "1480"},
            {"name": "Flores", "postalCode": "1471"},
            {"name": "Hulong Duhat", "postalCode": "1472"},
            {"name": "Ibaba", "postalCode": "1470"},
            {"name": "Longos", "postalCode": "1472"},
            {"name": "Maysilo", "postalCode": "1471"},
            {"name": "Muzon", "postalCode": "1470"},
            {"name": "Niugan", "postalCode": "1470"},
            {"name": "Potrero", "postalCode": "1475"},
            {"name": "San Agustin", "postalCode": "1470"},
            {"name": "Santolan", "postalCode": "1470"},
            {"name": "Tanong", "postalCode": "1470"},
            {"name": "Tonsuya", "postalCode": "1470"},
            {"name": "Tugatog", "postalCode": "1471"}
          ]
        },
        {
          "id": "navotas",
          "name": "Navotas",
          "postalCode": "1485",
          "barangays": [
            {"name": "Bagumbayan North", "postalCode": "1488"},
            {"name": "Bagumbayan South", "postalCode": "1489"},
            {"name": "Bangculasi", "postalCode": "1485"},
            {"name": "Daanghari", "postalCode": "1486"},
            {"name": "Navotas East", "postalCode": "1485"},
            {"name": "Navotas West", "postalCode": "1485"},
            {"name": "North Bay Boulevard North", "postalCode": "1409"},
            {"name": "North Bay Boulevard South Dagat-Dagatan", "postalCode": "1411"},
            {"name": "San Jose", "postalCode": "1487"},
            {"name": "San Rafael Village", "postalCode": "1412"},
            {"name": "Sipac-Almacen", "postalCode": "1487"},
            {"name": "Tangos North", "postalCode": "1489"},
            {"name": "Tangos South", "postalCode": "1489"},
            {"name": "Tanza 1", "postalCode": "1490"},
            {"name": "Tanza 2", "postalCode": "1490"}
          ]
        },
        {
          "id": "valenzuela",
          "name": "Valenzuela",
          "postalCode": "1440",
          "barangays": [
            {"name": "Arkong Bato", "postalCode": "1444"},
            {"name": "Bagbaguin", "postalCode": "1448"},
            {"name": "Balangkas", "postalCode": "1445"},
            {"name": "Bignay", "postalCode": "1443"},
            {"name": "Bisig", "postalCode": "1444"},
            {"name": "Canumay East", "postalCode": "1442"},
            {"name": "Canumay West", "postalCode": "1442"},
            {"name": "Coloong", "postalCode": "1444"},
            {"name": "Dalandanan", "postalCode": "1444"},
            {"name": "Gen. T. de Leon", "postalCode": "1442"},
            {"name": "Isla", "postalCode": "1440"},
            {"name": "Karuhatan", "postalCode": "1441"},
            {"name": "Lawang Bato", "postalCode": "1444"},
            {"name": "Lingunan", "postalCode": "1446"},
            {"name": "Mabolo", "postalCode": "1444"},
            {"name": "Malanday", "postalCode": "1444"},
            {"name": "Malinta", "postalCode": "1440"},
            {"name": "Mapulang Lupa", "postalCode": "1448"},
            {"name": "Marulas", "postalCode": "1440"},
            {"name": "Maysan", "postalCode": "1445"},
            {"name": "Palasan", "postalCode": "1444"},
            {"name": "Parada", "postalCode": "1443"},
            {"name": "Pariancillo Villa", "postalCode": "1444"},
            {"name": "Paso de Blas", "postalCode": "1442"},
            {"name": "Pasolo", "postalCode": "1444"},
            {"name": "Poblacion", "postalCode": "1440"},
            {"name": "Polo", "postalCode": "1444"},
            {"name": "Rincon", "postalCode": "1444"},
            {"name": "Tagalag", "postalCode": "1440"},
            {"name": "Ugong", "postalCode": "1440"},
            {"name": "Veinte Reales", "postalCode": "1443"},
            {"name": "Wawang Pulo", "postalCode": "1444"}
          ]
        }
      ]
    },
    {
      "id": "region3",
      "name": "Central Luzon",
      "cities": [
        {
          "id": "angeles",
          "name": "Angeles City",
          "barangays": [
            "Agapito del Rosario", "Amsic", "Anunas", "Balibago", "Capaya",
            "Claro M. Recto", "Cuayan", "Cutcut", "Cutud", "Lourdes North West",
            "Lourdes Sur", "Malabanias", "Margot", "Mining", "Ninoy Aquino",
            "Pampang", "Pandan", "Pulung Cacutud", "Pulung Maragul", "Pulungbulu",
            "Salapungan", "San Jose", "San Nicolas", "Santa Teresita", "Santa Trinidad",
            "Santo Cristo", "Santo Domingo", "Santo Rosario", "Sapalibutad", "Sapangbato",
            "Tabun", "Virgen Delos Remedios"
          ]
        },
        {
          "id": "san_fernando",
          "name": "San Fernando",
          "barangays": [
            "Bulaon", "Calulut", "Del Carmen", "Del Pilar", "Del Rosario",
            "Dolores", "Lara", "Lourdes", "Maimpis", "Malino", "Malpitic",
            "Pandaras", "Panipuan", "Pulung Bulo", "Quebiawan", "Saguin",
            "San Agustin", "San Felipe", "San Isidro", "San Jose", "San Juan",
            "San Nicolas", "San Pedro", "Santa Lucia", "Santa Teresita", "Santo Niño",
            "Santo Rosario", "Sindalan", "Telabastagan"
          ]
        }
      ]
    },
    {
      "id": "region4a",
      "name": "CALABARZON",
      "cities": [
        {
          "id": "antipolo",
          "name": "Antipolo",
          "barangays": [
            "Bagong Nayon", "Beverly Hills", "Cupang", "Dalig", "Dela Paz",
            "Inarawan", "Mambugan", "Mayamot", "Muntindilaw", "Poblacion",
            "San Isidro", "San Jose", "San Juan", "San Luis", "San Roque",
            "Santa Cruz", "Teresa"
          ]
        },
        {
          "id": "calamba",
          "name": "Calamba",
          "barangays": [
            "Bagong Kalsada", "Bancal", "Banlic", "Barandal", "Bubukal",
            "Bucal", "Bunggo", "Burol", "Camaligan", "Canlubang", "Halang",
            "Hornalan", "Kay-Anlog", "La Mesa", "Laguerta", "Lawa", "Lecheria",
            "Lingga", "Looc", "Luntal", "Mabato", "Majada", "Makiling",
            "Mapagong", "Masili", "Maunong", "Mayapa", "Milagrosa", "Paciano Rizal",
            "Palingon", "Palo-Alto", "Pansol", "Parian", "Prinza", "Puting Lupa",
            "Real", "Saimsim", "Sampiruhan", "San Cristobal", "San Jose",
            "San Juan", "Santa Elena", "Santo Tomas", "Turbina", "Ulango",
            "Uwisan"
          ]
        }
      ]
    }
  ]
}
